ONEWEB-0239             
1 48802U 21045AM  25219.83865755 -.00000113  00000+0 -33323-3 0  9993
2 48802  87.9078 321.7106 0001743  72.4913 287.6408 13.15547921204283
ONEWEB-0249             
1 48967U 21060A   25219.56463277  .00000067  00000+0  14263-3 0  9993
2 48967  87.9039 291.2956 0001890  96.4208 263.7138 13.16593191198347
ONEWEB-0250             
1 48968U 21060B   25219.58544176  .00000034  00000+0  48242-4 0  9993
2 48968  87.9039 290.0748 0001123  81.4779 278.6485 13.25810636198661
ONEWEB-0252             
1 48970U 21060D   25219.59630037 -.00000015  00000+0 -71715-4 0  9991
2 48970  87.9041 291.2823 0002317 100.4380 259.7013 13.16593443198391
ONEWEB-0253             
1 48971U 21060E   25219.58520969  .00000078  00000+0  17107-3 0  9994
2 48971  87.9039 291.2882 0002067  91.4548 268.6820 13.16596616198324
ONEWEB-0254             
1 48972U 21060F   25219.59472255  .00000161  00000+0  38717-3 0  9993
2 48972  87.9044 291.2722 0001898  84.6500 275.4847 13.16596898198324
ONEWEB-0255             
1 48973U 21060G   25219.55670928  .00000081  00000+0  17929-3 0  9990
2 48973  87.9034 291.3094 0001953  89.4312 270.7043 13.16596615198393
ONEWEB-0256             
1 48974U 21060H   25219.58284041  .00000083  00000+0  18446-3 0  9998
2 48974  87.9036 291.3150 0002117  99.7317 260.4053 13.16593189198368
ONEWEB-0257             
1 48975U 21060J   25219.23530903 -.00000183  00000+0 -51262-3 0  9998
2 48975  87.9041 291.3513 0002126  92.4394 267.6981 13.16593435198276
ONEWEB-0258             
1 48976U 21060K   25219.46489867 -.00000002  00000+0 -39759-4 0  9994
2 48976  87.9036 291.3301 0001933  97.3668 262.7683 13.16593374198311
ONEWEB-0259             
1 48977U 21060L   25219.53454696 -.00000239  00000+0 -65864-3 0  9992
2 48977  87.9039 291.3007 0001951  92.5113 267.6241 13.16594080198353
ONEWEB-0260             
1 48978U 21060M   25219.60184189 -.00000036  00000+0 -12682-3 0  9993
2 48978  87.9034 291.3127 0002519  99.5880 260.5536 13.16592884198349
ONEWEB-0261             
1 48979U 21060N   25219.57176117  .00000104  00000+0  23761-3 0  9996
2 48979  87.9035 291.3203 0002279  87.4858 272.6534 13.16594724198392
ONEWEB-0262             
1 48980U 21060P   25219.47598855  .00000064  00000+0  13412-3 0  9991
2 48980  87.9039 291.3016 0001789  89.5322 270.6014 13.16593572198340
ONEWEB-0263             
1 48981U 21060Q   25219.43165605  .00000108  00000+0  24944-3 0  9992
2 48981  87.9038 291.3342 0002085  83.7792 276.3577 13.16594980198306
ONEWEB-0264             
1 48982U 21060R   25219.46885038  .00000051  00000+0  98513-4 0  9996
2 48982  87.9035 291.3318 0002072  93.9515 266.1853 13.16593348198311
ONEWEB-0266             
1 48984U 21060T   25219.56622702  .00000070  00000+0  14920-3 0  9996
2 48984  87.9039 291.2877 0001806  98.6777 261.4559 13.16593347198312
