[{"OBJECT_NAME":"ONEWEB-0239","OBJECT_ID":"2021-045AM","EPOCH":"2025-08-07T20:07:40.012320","MEAN_MOTION":13.15547921,"ECCENTRICITY":0.0001743,"INCLINATION":87.9078,"RA_OF_ASC_NODE":321.7106,"ARG_OF_PERICENTER":72.4913,"MEAN_ANOMALY":287.6408,"EPHEMERIS_TYPE":0,"CLASSIFICATION_TYPE":"U","NORAD_CAT_ID":48802,"ELEMENT_SET_NO":999,"REV_AT_EPOCH":20428,"BSTAR":-0.00033323,"MEAN_MOTION_DOT":-1.13e-6,"MEAN_MOTION_DDOT":0},{"OBJECT_NAME":"ONEWEB-0249","OBJECT_ID":"2021-060A","EPOCH":"2025-08-07T13:33:04.271328","MEAN_MOTION":13.16593191,"ECCENTRICITY":0.00018907,"INCLINATION":87.9039,"RA_OF_ASC_NODE":291.2956,"ARG_OF_PERICENTER":96.4208,"MEAN_ANOMALY":263.7138,"EPHEMERIS_TYPE":0,"CLASSIFICATION_TYPE":"U","NORAD_CAT_ID":48967,"ELEMENT_SET_NO":999,"REV_AT_EPOCH":19834,"BSTAR":0.00014263339,"MEAN_MOTION_DOT":6.7e-7,"MEAN_MOTION_DDOT":0},{"OBJECT_NAME":"ONEWEB-0250","OBJECT_ID":"2021-060B","EPOCH":"2025-08-07T14:03:02.168064","MEAN_MOTION":13.25810636,"ECCENTRICITY":0.00011236,"INCLINATION":87.9039,"RA_OF_ASC_NODE":290.0748,"ARG_OF_PERICENTER":81.4779,"MEAN_ANOMALY":278.6485,"EPHEMERIS_TYPE":0,"CLASSIFICATION_TYPE":"U","NORAD_CAT_ID":48968,"ELEMENT_SET_NO":999,"REV_AT_EPOCH":19866,"BSTAR":4.824178e-5,"MEAN_MOTION_DOT":3.4e-7,"MEAN_MOTION_DDOT":0},{"OBJECT_NAME":"ONEWEB-0252","OBJECT_ID":"2021-060D","EPOCH":"2025-08-07T14:18:40.351968","MEAN_MOTION":13.16593443,"ECCENTRICITY":0.0002317,"INCLINATION":87.9041,"RA_OF_ASC_NODE":291.2823,"ARG_OF_PERICENTER":100.438,"MEAN_ANOMALY":259.7013,"EPHEMERIS_TYPE":0,"CLASSIFICATION_TYPE":"U","NORAD_CAT_ID":48970,"ELEMENT_SET_NO":999,"REV_AT_EPOCH":19839,"BSTAR":-7.1715e-5,"MEAN_MOTION_DOT":-1.5e-7,"MEAN_MOTION_DDOT":0},{"OBJECT_NAME":"ONEWEB-0253","OBJECT_ID":"2021-060E","EPOCH":"2025-08-07T14:02:42.117216","MEAN_MOTION":13.16596616,"ECCENTRICITY":0.0002067,"INCLINATION":87.9039,"RA_OF_ASC_NODE":291.2882,"ARG_OF_PERICENTER":91.4548,"MEAN_ANOMALY":268.682,"EPHEMERIS_TYPE":0,"CLASSIFICATION_TYPE":"U","NORAD_CAT_ID":48971,"ELEMENT_SET_NO":999,"REV_AT_EPOCH":19832,"BSTAR":0.00017106906,"MEAN_MOTION_DOT":7.8e-7,"MEAN_MOTION_DDOT":0},{"OBJECT_NAME":"ONEWEB-0254","OBJECT_ID":"2021-060F","EPOCH":"2025-08-07T14:16:24.028320","MEAN_MOTION":13.16596898,"ECCENTRICITY":0.0001898,"INCLINATION":87.9044,"RA_OF_ASC_NODE":291.2722,"ARG_OF_PERICENTER":84.65,"MEAN_ANOMALY":275.4847,"EPHEMERIS_TYPE":0,"CLASSIFICATION_TYPE":"U","NORAD_CAT_ID":48972,"ELEMENT_SET_NO":999,"REV_AT_EPOCH":19832,"BSTAR":0.00038717031,"MEAN_MOTION_DOT":1.61e-6,"MEAN_MOTION_DDOT":0},{"OBJECT_NAME":"ONEWEB-0255","OBJECT_ID":"2021-060G","EPOCH":"2025-08-07T13:21:39.681792","MEAN_MOTION":13.16596615,"ECCENTRICITY":0.00019534,"INCLINATION":87.9034,"RA_OF_ASC_NODE":291.3094,"ARG_OF_PERICENTER":89.4312,"MEAN_ANOMALY":270.7043,"EPHEMERIS_TYPE":0,"CLASSIFICATION_TYPE":"U","NORAD_CAT_ID":48973,"ELEMENT_SET_NO":999,"REV_AT_EPOCH":19839,"BSTAR":0.00017929394,"MEAN_MOTION_DOT":8.1e-7,"MEAN_MOTION_DDOT":0},{"OBJECT_NAME":"ONEWEB-0256","OBJECT_ID":"2021-060H","EPOCH":"2025-08-07T13:59:17.411424","MEAN_MOTION":13.16593189,"ECCENTRICITY":0.00021173,"INCLINATION":87.9036,"RA_OF_ASC_NODE":291.315,"ARG_OF_PERICENTER":99.7317,"MEAN_ANOMALY":260.4053,"EPHEMERIS_TYPE":0,"CLASSIFICATION_TYPE":"U","NORAD_CAT_ID":48974,"ELEMENT_SET_NO":999,"REV_AT_EPOCH":19836,"BSTAR":0.00018446362,"MEAN_MOTION_DOT":8.3e-7,"MEAN_MOTION_DDOT":0},{"OBJECT_NAME":"ONEWEB-0257","OBJECT_ID":"2021-060J","EPOCH":"2025-08-07T05:38:50.700192","MEAN_MOTION":13.16593435,"ECCENTRICITY":0.00021263,"INCLINATION":87.9041,"RA_OF_ASC_NODE":291.3513,"ARG_OF_PERICENTER":92.4394,"MEAN_ANOMALY":267.6981,"EPHEMERIS_TYPE":0,"CLASSIFICATION_TYPE":"U","NORAD_CAT_ID":48975,"ELEMENT_SET_NO":999,"REV_AT_EPOCH":19827,"BSTAR":-0.0005126222,"MEAN_MOTION_DOT":-1.83e-6,"MEAN_MOTION_DDOT":0},{"OBJECT_NAME":"ONEWEB-0258","OBJECT_ID":"2021-060K","EPOCH":"2025-08-07T11:09:27.245088","MEAN_MOTION":13.16593374,"ECCENTRICITY":0.00019337,"INCLINATION":87.9036,"RA_OF_ASC_NODE":291.3301,"ARG_OF_PERICENTER":97.3668,"MEAN_ANOMALY":262.7683,"EPHEMERIS_TYPE":0,"CLASSIFICATION_TYPE":"U","NORAD_CAT_ID":48976,"ELEMENT_SET_NO":999,"REV_AT_EPOCH":19831,"BSTAR":-3.9759337e-5,"MEAN_MOTION_DOT":-2.0e-8,"MEAN_MOTION_DDOT":0},{"OBJECT_NAME":"ONEWEB-0259","OBJECT_ID":"2021-060L","EPOCH":"2025-08-07T12:49:44.857344","MEAN_MOTION":13.1659408,"ECCENTRICITY":0.00019516,"INCLINATION":87.9039,"RA_OF_ASC_NODE":291.3007,"ARG_OF_PERICENTER":92.5113,"MEAN_ANOMALY":267.6241,"EPHEMERIS_TYPE":0,"CLASSIFICATION_TYPE":"U","NORAD_CAT_ID":48977,"ELEMENT_SET_NO":999,"REV_AT_EPOCH":19835,"BSTAR":-0.00065864055,"MEAN_MOTION_DOT":-2.39e-6,"MEAN_MOTION_DDOT":0},{"OBJECT_NAME":"ONEWEB-0260","OBJECT_ID":"2021-060M","EPOCH":"2025-08-07T14:26:39.139296","MEAN_MOTION":13.16592884,"ECCENTRICITY":0.00025197,"INCLINATION":87.9034,"RA_OF_ASC_NODE":291.3127,"ARG_OF_PERICENTER":99.588,"MEAN_ANOMALY":260.5536,"EPHEMERIS_TYPE":0,"CLASSIFICATION_TYPE":"U","NORAD_CAT_ID":48978,"ELEMENT_SET_NO":999,"REV_AT_EPOCH":19834,"BSTAR":-0.00012681896,"MEAN_MOTION_DOT":-3.6e-7,"MEAN_MOTION_DDOT":0},{"OBJECT_NAME":"ONEWEB-0261","OBJECT_ID":"2021-060N","EPOCH":"2025-08-07T13:43:20.165088","MEAN_MOTION":13.16594724,"ECCENTRICITY":0.00022794,"INCLINATION":87.9035,"RA_OF_ASC_NODE":291.3203,"ARG_OF_PERICENTER":87.4858,"MEAN_ANOMALY":272.6534,"EPHEMERIS_TYPE":0,"CLASSIFICATION_TYPE":"U","NORAD_CAT_ID":48979,"ELEMENT_SET_NO":999,"REV_AT_EPOCH":19839,"BSTAR":0.00023761367,"MEAN_MOTION_DOT":1.04e-6,"MEAN_MOTION_DDOT":0},{"OBJECT_NAME":"ONEWEB-0262","OBJECT_ID":"2021-060P","EPOCH":"2025-08-07T11:25:25.410720","MEAN_MOTION":13.16593572,"ECCENTRICITY":0.00017897,"INCLINATION":87.9039,"RA_OF_ASC_NODE":291.3016,"ARG_OF_PERICENTER":89.5322,"MEAN_ANOMALY":270.6014,"EPHEMERIS_TYPE":0,"CLASSIFICATION_TYPE":"U","NORAD_CAT_ID":48980,"ELEMENT_SET_NO":999,"REV_AT_EPOCH":19834,"BSTAR":0.00013411637,"MEAN_MOTION_DOT":6.4e-7,"MEAN_MOTION_DDOT":0},{"OBJECT_NAME":"ONEWEB-0263","OBJECT_ID":"2021-060Q","EPOCH":"2025-08-07T10:21:35.082720","MEAN_MOTION":13.1659498,"ECCENTRICITY":0.00020854,"INCLINATION":87.9038,"RA_OF_ASC_NODE":291.3342,"ARG_OF_PERICENTER":83.7792,"MEAN_ANOMALY":276.3577,"EPHEMERIS_TYPE":0,"CLASSIFICATION_TYPE":"U","NORAD_CAT_ID":48981,"ELEMENT_SET_NO":999,"REV_AT_EPOCH":19830,"BSTAR":0.00024944389,"MEAN_MOTION_DOT":1.08e-6,"MEAN_MOTION_DDOT":0},{"OBJECT_NAME":"ONEWEB-0264","OBJECT_ID":"2021-060R","EPOCH":"2025-08-07T11:15:08.672832","MEAN_MOTION":13.16593348,"ECCENTRICITY":0.00020726,"INCLINATION":87.9035,"RA_OF_ASC_NODE":291.3318,"ARG_OF_PERICENTER":93.9515,"MEAN_ANOMALY":266.1853,"EPHEMERIS_TYPE":0,"CLASSIFICATION_TYPE":"U","NORAD_CAT_ID":48982,"ELEMENT_SET_NO":999,"REV_AT_EPOCH":19831,"BSTAR":9.851344e-5,"MEAN_MOTION_DOT":5.1e-7,"MEAN_MOTION_DDOT":0},{"OBJECT_NAME":"ONEWEB-0266","OBJECT_ID":"2021-060T","EPOCH":"2025-08-07T13:35:22.014528","MEAN_MOTION":13.16593347,"ECCENTRICITY":0.00018069,"INCLINATION":87.9039,"RA_OF_ASC_NODE":291.2877,"ARG_OF_PERICENTER":98.6777,"MEAN_ANOMALY":261.4559,"EPHEMERIS_TYPE":0,"CLASSIFICATION_TYPE":"U","NORAD_CAT_ID":48984,"ELEMENT_SET_NO":999,"REV_AT_EPOCH":19831,"BSTAR":0.00014919597,"MEAN_MOTION_DOT":7.0e-7,"MEAN_MOTION_DDOT":0}]
